{
  "type": "FeatureCollection",
  "features": [
    {
      "type": "Feature",
      "properties": {
        "norad_id": 32376,
        "name": "COSMO-SKYMED 2",
        "group": "resource",
        "lat": 21.773590542362513,
        "lon": 166.98151401607765,
        "alt_km": 621.9044702969013,
        "timestamp": "2025-12-14T20:40:31.424387+00:00",
        "meta_object_name": "COSMO-SKYMED 2",
        "meta_object_id": "2007-059A",
        "meta_epoch": "2025-12-14T14:05:43.537344",
        "meta_mean_motion": 14.82144731,
        "meta_eccentricity": 0.0001392,
        "meta_inclination": 97.881,
        "meta_ra_of_asc_node": 169.8833,
        "meta_arg_of_pericenter": 83.8663,
        "meta_mean_anomaly": 276.2709,
        "meta_ephemeris_type": 0,
        "meta_classification_type": "U",
        "meta_norad_cat_id": 32376,
        "meta_element_set_no": 999,
        "meta_rev_at_epoch": 97465,
        "meta_bstar": 9.3138e-05,
        "meta_mean_motion_dot": 6.89e-06,
        "meta_mean_motion_ddot": 0,
        "tle_line1": "1 32376U 07059A   25348.58730946  .00000689  00000+0  93138-4 0  9996",
        "tle_line2": "2 32376  97.8810 169.8833 0001392  83.8663 276.2709 14.82144731974652"
      },
      "geometry": {
        "type": "Point",
        "coordinates": [
          166.98151401607765,
          21.773590542362513
        ]
      }
    },
    {
      "type": "Feature",
      "properties": {
        "norad_id": 32382,
        "name": "RADARSAT-2",
        "group": "resource",
        "lat": -65.46165617489198,
        "lon": 12.732953743150272,
        "alt_km": 799.694769687063,
        "timestamp": "2025-12-14T20:40:31.424397+00:00",
        "meta_object_name": "RADARSAT-2",
        "meta_object_id": "2007-061A",
        "meta_epoch": "2025-12-14T07:33:12.665952",
        "meta_mean_motion": 14.29982182,
        "meta_eccentricity": 0.0001119,
        "meta_inclination": 98.5803,
        "meta_ra_of_asc_node": 352.8822,
        "meta_arg_of_pericenter": 85.6544,
        "meta_mean_anomaly": 274.4766,
        "meta_ephemeris_type": 0,
        "meta_classification_type": "U",
        "meta_norad_cat_id": 32382,
        "meta_element_set_no": 999,
        "meta_rev_at_epoch": 93953,
        "meta_bstar": 2.7680737e-05,
        "meta_mean_motion_dot": 2.8e-07,
        "meta_mean_motion_ddot": 0,
        "tle_line1": "1 32382U 07061A   25348.31472993  .00000028  00000+0  27681-4 0  9999",
        "tle_line2": "2 32382  98.5803 352.8822 0001119  85.6544 274.4766 14.29982182939538"
      },
      "geometry": {
        "type": "Point",
        "coordinates": [
          12.732953743150272,
          -65.46165617489198
        ]
      }
    },
    {
      "type": "Feature",
      "properties": {
        "norad_id": 32783,
        "name": "CARTOSAT-2A",
        "group": "resource",
        "lat": 42.134738995016605,
        "lon": -134.2641812221839,
        "alt_km": 635.4891527533882,
        "timestamp": "2025-12-14T20:40:31.424408+00:00",
        "meta_object_name": "CARTOSAT-2A",
        "meta_object_id": "2008-021A",
        "meta_epoch": "2025-12-14T08:41:26.368800",
        "meta_mean_motion": 14.78942089,
        "meta_eccentricity": 0.00117287,
        "meta_inclination": 97.7932,
        "meta_ra_of_asc_node": 38.1349,
        "meta_arg_of_pericenter": 359.5706,
        "meta_mean_anomaly": 0.5493,
        "meta_ephemeris_type": 0,
        "meta_classification_type": "U",
        "meta_norad_cat_id": 32783,
        "meta_element_set_no": 999,
        "meta_rev_at_epoch": 95148,
        "meta_bstar": 0.00019927231,
        "meta_mean_motion_dot": 1.421e-05,
        "meta_mean_motion_ddot": 0,
        "tle_line1": "1 32783U 08021A   25348.36211075  .00001421  00000+0  19927-3 0  9999",
        "tle_line2": "2 32783  97.7932  38.1349 0011728 359.5706   0.5493 14.78942089951484"
      },
      "geometry": {
        "type": "Point",
        "coordinates": [
          -134.2641812221839,
          42.134738995016605
        ]
      }
    },
    {
      "type": "Feature",
      "properties": {
        "norad_id": 33320,
        "name": "HUANJING 1A (HJ-1A)",
        "group": "resource",
        "lat": 36.14922442519358,
        "lon": -28.566351062028314,
        "alt_km": 602.2639727840315,
        "timestamp": "2025-12-14T20:40:31.424418+00:00",
        "meta_object_name": "HUANJING 1A (HJ-1A)",
        "meta_object_id": "2008-041A",
        "meta_epoch": "2025-12-14T07:33:38.803680",
        "meta_mean_motion": 14.83403164,
        "meta_eccentricity": 0.00200469,
        "meta_inclination": 97.6542,
        "meta_ra_of_asc_node": 336.548,
        "meta_arg_of_pericenter": 29.4047,
        "meta_mean_anomaly": 330.8291,
        "meta_ephemeris_type": 0,
        "meta_classification_type": "U",
        "meta_norad_cat_id": 33320,
        "meta_element_set_no": 999,
        "meta_rev_at_epoch": 93099,
        "meta_bstar": 0.00033944878,
        "meta_mean_motion_dot": 2.744e-05,
        "meta_mean_motion_ddot": 0,
        "tle_line1": "1 33320U 08041A   25348.31503245  .00002744  00000+0  33945-3 0  9992",
        "tle_line2": "2 33320  97.6542 336.5480 0020046  29.4047 330.8291 14.83403164930993"
      },
      "geometry": {
        "type": "Point",
        "coordinates": [
          -28.566351062028314,
          36.14922442519358
        ]
      }
    },
    {
      "type": "Feature",
      "properties": {
        "norad_id": 33321,
        "name": "HUANJING 1B (HJ-1B)",
        "group": "resource",
        "lat": -71.6877528877769,
        "lon": 136.83461339025575,
        "alt_km": 654.3597302555381,
        "timestamp": "2025-12-14T20:40:31.424435+00:00",
        "meta_object_name": "HUANJING 1B (HJ-1B)",
        "meta_object_id": "2008-041B",
        "meta_epoch": "2025-12-14T08:12:05.808960",
        "meta_mean_motion": 14.82829786,
        "meta_eccentricity": 0.00381906,
        "meta_inclination": 97.6403,
        "meta_ra_of_asc_node": 340.2665,
        "meta_arg_of_pericenter": 70.6162,
        "meta_mean_anomaly": 289.9174,
        "meta_ephemeris_type": 0,
        "meta_classification_type": "U",
        "meta_norad_cat_id": 33321,
        "meta_element_set_no": 999,
        "meta_rev_at_epoch": 93101,
        "meta_bstar": 0.00031514864,
        "meta_mean_motion_dot": 2.532e-05,
        "meta_mean_motion_ddot": 0,
        "tle_line1": "1 33321U 08041B   25348.34173390  .00002532  00000+0  31515-3 0  9996",
        "tle_line2": "2 33321  97.6403 340.2665 0038190  70.6162 289.9174 14.82829786931011"
      },
      "geometry": {
        "type": "Point",
        "coordinates": [
          136.83461339025575,
          -71.6877528877769
        ]
      }
    },
    {
      "type": "Feature",
      "properties": {
        "norad_id": 33331,
        "name": "GEOEYE 1",
        "group": "resource",
        "lat": 75.35026288423857,
        "lon": -86.75563186758099,
        "alt_km": 672.3632325624312,
        "timestamp": "2025-12-14T20:40:31.424458+00:00",
        "meta_object_name": "GEOEYE 1",
        "meta_object_id": "2008-042A",
        "meta_epoch": "2025-12-14T07:05:42.188352",
        "meta_mean_motion": 14.64815404,
        "meta_eccentricity": 0.00027287,
        "meta_inclination": 98.1252,
        "meta_ra_of_asc_node": 59.557,
        "meta_arg_of_pericenter": 268.9575,
        "meta_mean_anomaly": 91.1316,
        "meta_ephemeris_type": 0,
        "meta_classification_type": "U",
        "meta_norad_cat_id": 33331,
        "meta_element_set_no": 999,
        "meta_rev_at_epoch": 92308,
        "meta_bstar": 0.00016511238,
        "meta_mean_motion_dot": 8.33e-06,
        "meta_mean_motion_ddot": 0,
        "tle_line1": "1 33331U 08042A   25348.29562718  .00000833  00000+0  16511-3 0  9999",
        "tle_line2": "2 33331  98.1252  59.5570 0002728 268.9575  91.1316 14.64815404923084"
      },
      "geometry": {
        "type": "Point",
        "coordinates": [
          -86.75563186758099,
          75.35026288423857
        ]
      }
    },
    {
      "type": "Feature",
      "properties": {
        "norad_id": 33396,
        "name": "THEOS",
        "group": "resource",
        "lat": -21.887231278144178,
        "lon": 50.36813867217014,
        "alt_km": 830.6865340058866,
        "timestamp": "2025-12-14T20:40:31.424480+00:00",
        "meta_object_name": "THEOS",
        "meta_object_id": "2008-049A",
        "meta_epoch": "2025-12-14T07:15:05.781600",
        "meta_mean_motion": 14.2009687,
        "meta_eccentricity": 0.00011477,
        "meta_inclination": 98.5866,
        "meta_ra_of_asc_node": 46.3454,
        "meta_arg_of_pericenter": 96.8347,
        "meta_mean_anomaly": 263.2961,
        "meta_ephemeris_type": 0,
        "meta_classification_type": "U",
        "meta_norad_cat_id": 33396,
        "meta_element_set_no": 999,
        "meta_rev_at_epoch": 89172,
        "meta_bstar": 0.00010092158,
        "meta_mean_motion_dot": 1.72e-06,
        "meta_mean_motion_ddot": 0,
        "tle_line1": "1 33396U 08049A   25348.30215025  .00000172  00000+0  10092-3 0  9999",
        "tle_line2": "2 33396  98.5866  46.3454 0001147  96.8347 263.2961 14.20096870891727"
      },
      "geometry": {
        "type": "Point",
        "coordinates": [
          50.36813867217014,
          -21.887231278144178
        ]
      }
    }
  ]
}